QIANFAN-60              
1 62790U 25016F   26013.62746418  .00000118  00000+0  16361-3 0  9997
2 62790  88.9751  99.7804 0014340 246.5498 113.4146 13.50994619 51532
QIANFAN-61              
1 62791U 25016G   26013.58632509  .00000113  00000+0  15592-3 0  9998
2 62791  88.9819  99.9693 0013286 245.7143 114.2621 13.50984870 51548
QIANFAN-62              
1 62792U 25016H   26013.51640121  .00000122  00000+0  16994-3 0  9998
2 62792  88.9765  99.8278 0014654 246.8146 113.1462 13.50987486 51527
QIANFAN-63              
1 62793U 25016J   26013.54105991  .00000114  00000+0  15766-3 0  9990
2 62793  88.9771  99.7789 0014601 252.6034 107.3521 13.50985695 51569
QIANFAN-64              
1 62794U 25016K   26013.58219359 -.00000002  00000+0 -21010-4 0  9997
2 62794  88.9758  99.7444 0012693 243.9334 116.0511 13.50984096 51568
QIANFAN-65              
1 62795U 25016L   26013.57812703  .00000104  00000+0  14312-3 0  9996
2 62795  88.9755  99.7697 0012503 245.8001 114.1843 13.50982835 51542
QIANFAN-66              
1 62796U 25016M   26013.60690659  .00000111  00000+0  15377-3 0  9995
2 62796  88.9774  99.7432 0013712 241.2942 118.6831 13.50987782 51595
QIANFAN-67              
1 62797U 25016N   26013.61105590  .00000110  00000+0  15132-3 0  9990
2 62797  88.9764  99.7652 0013522 248.8951 111.0755 13.50991961 51564
QIANFAN-68              
1 62798U 25016P   26013.60278080  .00000126  00000+0  17667-3 0  9997
2 62798  88.9768  99.8123 0013615 246.9786 112.9930 13.50983903 51541
QIANFAN-69              
1 62799U 25016Q   26013.54516741  .00000112  00000+0  15485-3 0  9991
2 62799  88.9747  99.6809 0014331 248.6491 111.3131 13.50984243 51573
QIANFAN-70              
1 62800U 25016R   26013.63576836  .00000123  00000+0  17140-3 0  9997
2 62800  88.9767  99.8167 0014172 237.6926 122.2853 13.50988064 51545
QIANFAN-71              
1 62801U 25016S   26013.63157385  .00000116  00000+0  16156-3 0  9990
2 62801  88.9761  99.7947 0014177 252.2565 107.7040 13.50987431 51545
QIANFAN-72              
1 62802U 25016T   26013.57395821  .00000112  00000+0  15569-3 0  9996
2 62802  88.9752  99.8109 0017302 261.1211  98.7981 13.50987311 51525
QIANFAN-73              
1 63159U 25046A   26013.60111806  .00000161  00000+0  23062-3 0  9999
2 63159  88.9790 316.7290 0016556  36.5814 323.6464 13.50988090 51710
QIANFAN-74              
1 63160U 25046B   26013.58457187  .00000154  00000+0  21957-3 0  9996
2 63160  88.9790 316.6195 0001925  69.2801 290.8556 13.50985216 51778
QIANFAN-75              
1 63161U 25046C   26013.57175759  .00000178  00000+0  25720-3 0  9996
2 63161  88.9791 316.8549 0017816  38.9509 321.2922 13.50988220 51649
QIANFAN-76              
1 63162U 25046D   26013.56840001  .00000171  00000+0  24596-3 0  9998
2 63162  88.9790 316.8356 0015380  40.0997 320.1286 13.50990523 51655
QIANFAN-77              
1 63163U 25046E   26013.50825580  .00000354  00000+0  24816-3 0  9996
2 63163  88.9790 314.5885 0014907 350.4127   9.6763 13.96120330 52881
QIANFAN-78              
1 63164U 25046F   26013.60931018  .00000174  00000+0  25108-3 0  9997
2 63164  88.9789 316.6951 0016792  41.6515 318.5911 13.50989397 51737
QIANFAN-79              
1 63165U 25046G   26013.56389288  .00000179  00000+0  25850-3 0  9998
2 63165  88.9793 316.8085 0016476  40.3498 319.8873 13.50986417 51672
QIANFAN-80              
1 63166U 25046H   26013.58043392  .00000170  00000+0  24370-3 0  9991
2 63166  88.9791 316.5129 0015502  44.3012 315.9377 13.50989250 51834
QIANFAN-81              
1 63167U 25046J   26013.55821007  .00000171  00000+0  24542-3 0  9998
2 63167  88.9791 316.5830 0016302  33.7482 326.4704 13.51015257 51789
QIANFAN-82              
1 63168U 25046K   26013.59290153  .00000165  00000+0  23716-3 0  9990
2 63168  88.9791 316.6235 0014591  41.2471 318.9780 13.50988282 51775
QIANFAN-83              
1 63169U 25046L   26013.58337340  .00000189  00000+0  22953-3 0  9998
2 63169  88.9791 316.3384 0015515  26.3431 333.8512 13.61990299 51935
QIANFAN-84              
1 63170U 25046M   26013.62045914  .00000170  00000+0  24367-3 0  9999
2 63170  88.9790 316.7532 0017484  37.2182 323.0177 13.50998093 51707
QIANFAN-85              
1 63171U 25046N   26013.61745350  .00000165  00000+0  23657-3 0  9995
2 63171  88.9790 316.6252 0014931  40.0028 320.2220 13.50987130 51776
QIANFAN-86              
1 63172U 25046P   26013.55171721  .00000170  00000+0  24408-3 0  9995
2 63172  88.9792 316.4949 0012888  44.6421 315.5765 13.50988983 51842
QIANFAN-87              
1 63173U 25046Q   26013.59716282  .00000163  00000+0  23418-3 0  9999
2 63173  88.9788 316.6005 0013447  40.2378 319.9766 13.50986657 51786
QIANFAN-88              
1 63174U 25046R   26013.61334434  .00000172  00000+0  24762-3 0  9991
2 63174  88.9791 316.5542 0013986  46.9805 313.2516 13.50992877 51817
QIANFAN-89              
1 63175U 25046S   26013.57623686  .00000175  00000+0  25250-3 0  9993
2 63175  88.9791 316.7471 0018172  37.5077 322.7338 13.50989259 51705
QIANFAN-90              
1 63176U 25046T   26013.60497492  .00000174  00000+0  24995-3 0  9996
2 63176  88.9791 316.7165 0015076  36.7178 323.5003 13.50988842 51726
QIANFAN-91              
1 66033U 25233A   26013.48951121  .00000048  00000+0  55334-4 0  9991
2 66033  88.9924  58.8735 0008687 310.8089  49.2308 13.50967267 12290
QIANFAN-92              
1 66034U 25233B   26013.56892340  .00000052  00000+0  62792-4 0  9999
2 66034  88.9908  58.8617 0014003 308.7955  51.1944 13.50258245 12308
QIANFAN-93              
1 66035U 25233C   26013.57905556  .00000061  00000+0  77607-4 0  9996
2 66035  88.9935  58.8711 0012545 306.9604  53.0397 13.50168448 12302
QIANFAN-94              
1 66036U 25233D   26013.59401754  .00000084  00000+0  83063-4 0  9998
2 66036  88.9932  58.8020 0013725 304.9563  55.0308 13.68550985 12344
QIANFAN-95              
1 66037U 25233E   26013.43605983  .00000022  00000+0  57579-5 0  9998
2 66037  88.9931  58.5041 0011808 307.6155  52.3953 14.02182918 12499
QIANFAN-96              
1 66038U 25233F   26013.60066013  .00000035  00000+0  35205-4 0  9998
2 66038  88.9927  58.8726 0001213  92.1815 267.9475 13.50984263 12304
QIANFAN-97              
1 66039U 25233G   26013.43602552  .00000069  00000+0  88712-4 0  9992
2 66039  88.9932  58.8687 0009785 317.4904  42.5489 13.50956786 12290
QIANFAN-98              
1 66040U 25233H   26013.55655340  .00000102  00000+0  81847-4 0  9990
2 66040  88.9922  58.6662 0012972 306.3575  53.6396 13.82586438 12417
QIANFAN-99              
1 66041U 25233J   26013.59647555  .00000085  00000+0  11306-3 0  9996
2 66041  88.9932  58.8554 0013013 310.0926  49.9084 13.50982842 12315
QIANFAN-100             
1 66042U 25233K   26013.51438233  .00000025  00000+0  19802-4 0  9994
2 66042  88.9921  58.7742 0013299 317.9571  42.0560 13.52203171 12350
QIANFAN-101             
1 66043U 25233L   26013.57869963  .00000149  00000+0  55698-4 0  9999
2 66043  88.9929  58.3574 0012597 294.1592  65.8284 14.26693635 12588
QIANFAN-102             
1 66044U 25233M   26013.58517315  .00000081  00000+0  82701-4 0  9992
2 66044  88.9928  58.7993 0013188 309.6782  50.3215 13.66804543 12349
QIANFAN-103             
1 66045U 25233N   26013.53887156  .00000068  00000+0  86613-4 0  9992
2 66045  88.9931  58.8649 0012662 309.8136  50.1900 13.50990532 12306
QIANFAN-104             
1 66046U 25233P   26013.60246193  .00000088  00000+0  83917-4 0  9997
2 66046  88.9932  58.7859 0012563 313.1737  46.8376 13.71550099 12352
QIANFAN-105             
1 66047U 25233Q   26013.54917130  .00000118  00000+0  84098-4 0  9992
2 66047  88.9934  58.6699 0013614 307.1744  52.8185 13.90528477 12413
QIANFAN-106             
1 66048U 25233R   26013.61998282  .00000066  00000+0  84287-4 0  9990
2 66048  88.9918  58.8356 0012887 303.4821  56.5097 13.50172595 12329
QIANFAN-107             
1 66049U 25233S   26013.48133075  .00000053  00000+0  64268-4 0  9990
2 66049  88.9929  58.8586 0007868 311.6482  48.3995 13.50954898 12302
QIANFAN-108             
1 66050U 25233T   26013.63020830  .00000061  00000+0  77679-4 0  9992
2 66050  88.9927  58.8407 0012472 309.1665  50.8376 13.49662662 12322
